[
    {
        "Altitude(m)": 705151.313002308,
        "Argument of Periapsis(deg)": 0.011390121186627068,
        "Eccentricity": 0.0,
        "Inclination(deg)": 45.0,
        "Latitude(deg)": 34.97360217415498,
        "Longitude(deg)": -69.86206054741403,
        "Mean Anomaly(deg)": -233.9212833525191,
        "RAAN(deg)": 254.98924805854182,
        "Satellite Name": "Constellation 1 1129",
        "Satellite Number": 1129,
        "Semi-Major Axis(m)": 7083131.272910544,
        "Time(s)": 190
    },
    {
        "Altitude(m)": 705145.3742396575,
        "Argument of Periapsis(deg)": 0.011450069192872472,
        "Eccentricity": 0.0,
        "Inclination(deg)": 45.0,
        "Latitude(deg)": 34.9426347574101,
        "Longitude(deg)": -69.80248759190127,
        "Mean Anomaly(deg)": -233.8605822122693,
        "RAAN(deg)": 254.9891914693762,
        "Satellite Name": "Constellation 1 1129",
        "Satellite Number": 1129,
        "Semi-Major Axis(m)": 7083131.272910544,
        "Time(s)": 191
    },
    {
        "Altitude(m)": 705139.4339971548,
        "Argument of Periapsis(deg)": 0.01151001719911788,
        "Eccentricity": 0.0,
        "Inclination(deg)": 45.0,
        "Latitude(deg)": 34.911633835216804,
        "Longitude(deg)": -69.74296249247465,
        "Mean Anomaly(deg)": -233.79988107201945,
        "RAAN(deg)": 254.98913488021066,
        "Satellite Name": "Constellation 1 1129",
        "Satellite Number": 1129,
        "Semi-Major Axis(m)": 7083131.272910544,
        "Time(s)": 192
    },
    {
        "Altitude(m)": 705133.4923127395,
        "Argument of Periapsis(deg)": 0.011569965205363285,
        "Eccentricity": 0.0,
        "Inclination(deg)": 45.0,
        "Latitude(deg)": 34.88059947049969,
        "Longitude(deg)": -69.68348537764187,
        "Mean Anomaly(deg)": -233.73917993176946,
        "RAAN(deg)": 254.9890782910451,
        "Satellite Name": "Constellation 1 1129",
        "Satellite Number": 1129,
        "Semi-Major Axis(m)": 7083131.272910544,
        "Time(s)": 193
    },
    {
        "Altitude(m)": 705127.5492243562,
        "Argument of Periapsis(deg)": 0.01162991321160869,
        "Eccentricity": 0.0,
        "Inclination(deg)": 45.0,
        "Latitude(deg)": 34.84953172611925,
        "Longitude(deg)": -69.62405587142216,
        "Mean Anomaly(deg)": -233.67847879151958,
        "RAAN(deg)": 254.98902170187955,
        "Satellite Name": "Constellation 1 1129",
        "Satellite Number": 1129,
        "Semi-Major Axis(m)": 7083131.272910544,
        "Time(s)": 194
    },
    {
        "Altitude(m)": 705121.6047699946,
        "Argument of Periapsis(deg)": 0.011689861217854095,
        "Eccentricity": 0.0,
        "Inclination(deg)": 45.0,
        "Latitude(deg)": 34.81843066487119,
        "Longitude(deg)": -69.56467410192843,
        "Mean Anomaly(deg)": -233.61777765126968,
        "RAAN(deg)": 254.98896511271397,
        "Satellite Name": "Constellation 1 1129",
        "Satellite Number": 1129,
        "Semi-Major Axis(m)": 7083131.272910544,
        "Time(s)": 195
    },
    {
        "Altitude(m)": 705115.6589876472,
        "Argument of Periapsis(deg)": 0.0117498092240995,
        "Eccentricity": 0.0,
        "Inclination(deg)": 45.0,
        "Latitude(deg)": 34.78729634948661,
        "Longitude(deg)": -69.50534002898068,
        "Mean Anomaly(deg)": -233.55707651101977,
        "RAAN(deg)": 254.98890852354836,
        "Satellite Name": "Constellation 1 1129",
        "Satellite Number": 1129,
        "Semi-Major Axis(m)": 7083131.272910544,
        "Time(s)": 196
    },
    {
        "Altitude(m)": 705109.7119153369,
        "Argument of Periapsis(deg)": 0.011809757230344905,
        "Eccentricity": 0.0,
        "Inclination(deg)": 45.0,
        "Latitude(deg)": 34.75612884263174,
        "Longitude(deg)": -69.44605361220466,
        "Mean Anomaly(deg)": -233.49637537076984,
        "RAAN(deg)": 254.9888519343828,
        "Satellite Name": "Constellation 1 1129",
        "Satellite Number": 1129,
        "Semi-Major Axis(m)": 7083131.272910544,
        "Time(s)": 197
    },
    {
        "Altitude(m)": 705103.7635911171,
        "Argument of Periapsis(deg)": 0.011869705236590313,
        "Eccentricity": 0.0,
        "Inclination(deg)": 45.0,
        "Latitude(deg)": 34.72492820690786,
        "Longitude(deg)": -69.38681481103292,
        "Mean Anomaly(deg)": -233.43567423051996,
        "RAAN(deg)": 254.98879534521726,
        "Satellite Name": "Constellation 1 1129",
        "Satellite Number": 1129,
        "Semi-Major Axis(m)": 7083131.272910544,
        "Time(s)": 198
    },
    {
        "Altitude(m)": 705097.8140530545,
        "Argument of Periapsis(deg)": 0.011929653242835719,
        "Eccentricity": 0.0,
        "Inclination(deg)": 45.0,
        "Latitude(deg)": 34.693694504851,
        "Longitude(deg)": -69.32762358470592,
        "Mean Anomaly(deg)": -233.37497309027006,
        "RAAN(deg)": 254.9887387560517,
        "Satellite Name": "Constellation 1 1129",
        "Satellite Number": 1129,
        "Semi-Major Axis(m)": 7083131.272910544,
        "Time(s)": 199
    }
]